{
  "type": "FeatureCollection",
  "features": [
    {
      "type": "Feature",
      "properties": {
        "norad_id": 66697,
        "name": "IRIDE FM3",
        "group": "last-30-days",
        "lat": 42.452970364286216,
        "lon": 63.12158197382114,
        "alt_km": 508.15237079657527,
        "timestamp": "2025-12-24T09:46:29.714632+00:00",
        "meta_object_name": "IRIDE FM3",
        "meta_object_id": "2025-276AH",
        "meta_epoch": "2025-12-24T03:15:33.149376",
        "meta_mean_motion": 15.18187318,
        "meta_eccentricity": 0.000135,
        "meta_inclination": 97.4389,
        "meta_ra_of_asc_node": 69.7196,
        "meta_arg_of_pericenter": 150.5136,
        "meta_mean_anomaly": 209.6174,
        "meta_ephemeris_type": 0,
        "meta_classification_type": "U",
        "meta_norad_cat_id": 66697,
        "meta_element_set_no": 999,
        "meta_rev_at_epoch": 385,
        "meta_bstar": 0.00049419,
        "meta_mean_motion_dot": 0.00010041,
        "meta_mean_motion_ddot": 0,
        "tle_line1": "1 66697U 25276AH  25358.13580034  .00010041  00000+0  49419-3 0  9998",
        "tle_line2": "2 66697  97.4389  69.7196 0001350 150.5136 209.6174 15.18187318  3852"
      },
      "geometry": {
        "type": "Point",
        "coordinates": [
          63.12158197382114,
          42.452970364286216
        ]
      }
    },
    {
      "type": "Feature",
      "properties": {
        "norad_id": 66698,
        "name": "IRIDE FM4",
        "group": "last-30-days",
        "lat": -30.786130090438395,
        "lon": 74.42121733159945,
        "alt_km": 519.4163374300679,
        "timestamp": "2025-12-24T09:46:29.714644+00:00",
        "meta_object_name": "IRIDE FM4",
        "meta_object_id": "2025-276AJ",
        "meta_epoch": "2025-12-24T04:00:01.998720",
        "meta_mean_motion": 15.17342739,
        "meta_eccentricity": 0.000274,
        "meta_inclination": 97.4388,
        "meta_ra_of_asc_node": 69.7203,
        "meta_arg_of_pericenter": 253.8316,
        "meta_mean_anomaly": 201.7447,
        "meta_ephemeris_type": 0,
        "meta_classification_type": "U",
        "meta_norad_cat_id": 66698,
        "meta_element_set_no": 999,
        "meta_rev_at_epoch": 130,
        "meta_bstar": 0.0027368,
        "meta_mean_motion_dot": 0.00054913,
        "meta_mean_motion_ddot": 0,
        "tle_line1": "1 66698U 25276AJ  25358.16668980  .00054913  00000+0  27368-2 0  9993",
        "tle_line2": "2 66698  97.4388  69.7203 0002740 253.8316 201.7447 15.17342739  1305"
      },
      "geometry": {
        "type": "Point",
        "coordinates": [
          74.42121733159945,
          -30.786130090438395
        ]
      }
    },
    {
      "type": "Feature",
      "properties": {
        "norad_id": 66699,
        "name": "IRIDE FM5",
        "group": "last-30-days",
        "lat": -29.399297278300324,
        "lon": 74.18357782883746,
        "alt_km": 519.3018488326052,
        "timestamp": "2025-12-24T09:46:29.714656+00:00",
        "meta_object_name": "IRIDE FM5",
        "meta_object_id": "2025-276AK",
        "meta_epoch": "2025-12-24T03:34:29.520192",
        "meta_mean_motion": 15.17413849,
        "meta_eccentricity": 0.0003092,
        "meta_inclination": 97.4401,
        "meta_ra_of_asc_node": 69.7072,
        "meta_arg_of_pericenter": 249.791,
        "meta_mean_anomaly": 110.2991,
        "meta_ephemeris_type": 0,
        "meta_classification_type": "U",
        "meta_norad_cat_id": 66699,
        "meta_element_set_no": 999,
        "meta_rev_at_epoch": 385,
        "meta_bstar": 0.0010823,
        "meta_mean_motion_dot": 0.00021623,
        "meta_mean_motion_ddot": 0,
        "tle_line1": "1 66699U 25276AK  25358.14895278  .00021623  00000+0  10823-2 0  9994",
        "tle_line2": "2 66699  97.4401  69.7072 0003092 249.7910 110.2991 15.17413849  3852"
      },
      "geometry": {
        "type": "Point",
        "coordinates": [
          74.18357782883746,
          -29.399297278300324
        ]
      }
    },
    {
      "type": "Feature",
      "properties": {
        "norad_id": 66700,
        "name": "IRIDE FM6",
        "group": "last-30-days",
        "lat": 46.12359874728588,
        "lon": 62.18562850835954,
        "alt_km": 507.56124702821126,
        "timestamp": "2025-12-24T09:46:29.714666+00:00",
        "meta_object_name": "IRIDE FM6",
        "meta_object_id": "2025-276AL",
        "meta_epoch": "2025-12-24T03:14:35.003904",
        "meta_mean_motion": 15.18243091,
        "meta_eccentricity": 0.0001731,
        "meta_inclination": 97.4421,
        "meta_ra_of_asc_node": 69.7312,
        "meta_arg_of_pericenter": 156.8781,
        "meta_mean_anomaly": 203.2531,
        "meta_ephemeris_type": 0,
        "meta_classification_type": "U",
        "meta_norad_cat_id": 66700,
        "meta_element_set_no": 999,
        "meta_rev_at_epoch": 385,
        "meta_bstar": 0.00056101,
        "meta_mean_motion_dot": 0.00011429,
        "meta_mean_motion_ddot": 0,
        "tle_line1": "1 66700U 25276AL  25358.13512736  .00011429  00000+0  56101-3 0  9994",
        "tle_line2": "2 66700  97.4421  69.7312 0001731 156.8781 203.2531 15.18243091  3850"
      },
      "geometry": {
        "type": "Point",
        "coordinates": [
          62.18562850835954,
          46.12359874728588
        ]
      }
    },
    {
      "type": "Feature",
      "properties": {
        "norad_id": 66701,
        "name": "IRIDE FM7",
        "group": "last-30-days",
        "lat": -29.58529308299635,
        "lon": 74.22126748789769,
        "alt_km": 519.8295964928775,
        "timestamp": "2025-12-24T09:46:29.714679+00:00",
        "meta_object_name": "IRIDE FM7",
        "meta_object_id": "2025-276AM",
        "meta_epoch": "2025-12-23T22:49:39.683136",
        "meta_mean_motion": 15.17413272,
        "meta_eccentricity": 0.0004485,
        "meta_inclination": 97.4419,
        "meta_ra_of_asc_node": 69.5173,
        "meta_arg_of_pericenter": 239.7436,
        "meta_mean_anomaly": 120.3354,
        "meta_ephemeris_type": 0,
        "meta_classification_type": "U",
        "meta_norad_cat_id": 66701,
        "meta_element_set_no": 999,
        "meta_rev_at_epoch": 382,
        "meta_bstar": -0.00094395,
        "meta_mean_motion_dot": -0.0001888,
        "meta_mean_motion_ddot": 0,
        "tle_line1": "1 66701U 25276AM  25357.95115374 -.00018880  00000+0 -94395-3 0  9998",
        "tle_line2": "2 66701  97.4419  69.5173 0004485 239.7436 120.3354 15.17413272  3826"
      },
      "geometry": {
        "type": "Point",
        "coordinates": [
          74.22126748789769,
          -29.58529308299635
        ]
      }
    },
    {
      "type": "Feature",
      "properties": {
        "norad_id": 66702,
        "name": "IRIDE FM8",
        "group": "last-30-days",
        "lat": -28.542514285897315,
        "lon": 74.03486516206104,
        "alt_km": 519.0546430197555,
        "timestamp": "2025-12-24T09:46:29.714689+00:00",
        "meta_object_name": "IRIDE FM8",
        "meta_object_id": "2025-276AN",
        "meta_epoch": "2025-12-24T03:34:15.707424",
        "meta_mean_motion": 15.17412942,
        "meta_eccentricity": 0.0002879,
        "meta_inclination": 97.4396,
        "meta_ra_of_asc_node": 69.7053,
        "meta_arg_of_pericenter": 257.4973,
        "meta_mean_anomaly": 102.5939,
        "meta_ephemeris_type": 0,
        "meta_classification_type": "U",
        "meta_norad_cat_id": 66702,
        "meta_element_set_no": 999,
        "meta_rev_at_epoch": 385,
        "meta_bstar": 0.00054044,
        "meta_mean_motion_dot": 0.00010747,
        "meta_mean_motion_ddot": 0,
        "tle_line1": "1 66702U 25276AN  25358.14879291  .00010747  00000+0  54044-3 0  9995",
        "tle_line2": "2 66702  97.4396  69.7053 0002879 257.4973 102.5939 15.17412942  3855"
      },
      "geometry": {
        "type": "Point",
        "coordinates": [
          74.03486516206104,
          -28.542514285897315
        ]
      }
    },
    {
      "type": "Feature",
      "properties": {
        "norad_id": 66703,
        "name": "PELICAN-6",
        "group": "last-30-days",
        "lat": -21.37263538206007,
        "lon": 72.89592750977302,
        "alt_km": 519.1010002182438,
        "timestamp": "2025-12-24T09:46:29.714699+00:00",
        "meta_object_name": "PELICAN-6",
        "meta_object_id": "2025-276AP",
        "meta_epoch": "2025-12-23T10:07:52.193568",
        "meta_mean_motion": 15.17422387,
        "meta_eccentricity": 0.00018059,
        "meta_inclination": 97.4406,
        "meta_ra_of_asc_node": 68.9965,
        "meta_arg_of_pericenter": 230.3066,
        "meta_mean_anomaly": 129.8009,
        "meta_ephemeris_type": 0,
        "meta_classification_type": "U",
        "meta_norad_cat_id": 66703,
        "meta_element_set_no": 999,
        "meta_rev_at_epoch": 374,
        "meta_bstar": 0.0031748632,
        "meta_mean_motion_dot": 0.00063935,
        "meta_mean_motion_ddot": 0,
        "tle_line1": "1 66703U 25276AP  25357.42213187  .00063935  00000+0  31749-2 0  9995",
        "tle_line2": "2 66703  97.4406  68.9965 0001805 230.3066 129.8009 15.17422387  3744"
      },
      "geometry": {
        "type": "Point",
        "coordinates": [
          72.89592750977302,
          -21.37263538206007
        ]
      }
    }
  ]
}